NORAD_CAT_ID,OBJECT_NAME,OBJECT_TYPE,EPOCH,MEAN_MOTION,ECCENTRICITY,INCLINATION,RA_OF_ASC_NODE,ARG_OF_PERICENTER,MEAN_ANOMALY,BSTAR,MEAN_MOTION_DOT,MEAN_MOTION_DDOT,TLE_LINE0,TLE_LINE1,TLE_LINE2,SEMIMAJOR_AXIS,PERIOD,APOGEE,PERIGEE,DECAYED
53429.0,STARLINK-4543,PAYLOAD,2023-08-26 11:09:01,15.08837589,0.0001408,53.2177,302.2265,94.3339,265.7814,1.412e-05,-6.3e-07,0.0,0 STARLINK-4543,1 53429U 22097AT  23238.46459978 -.00000063  00000-0  14120-4 0  9995,2 53429  53.2177 302.2265 0001408  94.3339 265.7814 15.08837589 58475,6917.888,95.438,540.727,538.779,0.0
53429.0,STARLINK-4543,PAYLOAD,2023-08-27 09:24:25,15.08840165,0.0001455,53.2172,298.062,102.7843,257.3312,6.8697e-05,8.06e-06,0.0,0 STARLINK-4543,1 53429U 22097AT  23239.39195727  .00000806  00000-0  68697-4 0  9999,2 53429  53.2172 298.0620 0001455 102.7843 257.3312 15.08840165 59096,6917.88,95.438,540.751,538.738,0.0
53429.0,STARLINK-4543,PAYLOAD,2023-08-28 02:53:39,15.08837779,0.0001436,53.2172,294.7909,102.4334,257.6819,7.6292e-05,9.26e-06,0.0,0 STARLINK-4543,1 53429U 22097AT  23240.12059912  .00000926  00000-0  76292-4 0  9990,2 53429  53.2172 294.7909 0001436 102.4334 257.6819 15.08837779 58721,6917.887,95.438,540.746,538.759,0.0
53429.0,STARLINK-4543,PAYLOAD,2023-08-28 20:22:54,15.08836639,0.0001369,53.2165,291.5199,93.8628,266.252,4.8983e-05,4.92e-06,0.0,0 STARLINK-4543,1 53429U 22097AT  23240.84924235  .00000492  00000-0  48983-4 0  9992,2 53429  53.2165 291.5199 0001369  93.8628 266.2520 15.08836639 59318,6917.891,95.438,540.703,538.809,0.0
53429.0,STARLINK-4543,PAYLOAD,2023-08-29 09:05:59,15.08838996,0.0001426,53.2166,289.1408,96.4791,263.6364,2.8148e-05,1.6e-06,0.0,0 STARLINK-4543,1 53429U 22097AT  23241.37916240  .00000160  00000-0  28148-4 0  9991,2 53429  53.2166 289.1408 0001426  96.4791 263.6364 15.08838996 58919,6917.883,95.438,540.735,538.762,0.0
53429.0,STARLINK-4543,PAYLOAD,2023-08-29 10:41:22,15.08841181,0.0001434,53.2167,288.8435,95.8078,264.3078,4.5909e-05,4.43e-06,0.0,0 STARLINK-4543,1 53429U 22097AT  23241.44540060  .00000443  00000-0  45909-4 0  9990,2 53429  53.2167 288.8435 0001434  95.8078 264.3078 15.08841181 59401,6917.877,95.437,540.734,538.75,0.0
53429.0,STARLINK-4543,PAYLOAD,2023-08-30 10:32:10,15.08836666,0.0001422,53.2163,284.383,89.6459,270.4696,3.5705e-05,2.8e-06,0.0,0 STARLINK-4543,1 53429U 22097AT  23242.43900547  .00000280  00000-0  35705-4 0  9992,2 53429  53.2163 284.3830 0001422  89.6459 270.4696 15.08836666 59077,6917.891,95.438,540.739,538.772,0.0
53429.0,STARLINK-4543,PAYLOAD,2023-08-30 20:04:28,15.08838756,0.0001471,53.2166,282.5982,88.1051,272.011,5.1805e-05,5.37e-06,0.0,0 STARLINK-4543,1 53429U 22097AT  23242.83644433  .00000537  00000-0  51805-4 0  9999,2 53429  53.2166 282.5982 0001471  88.1051 272.0110 15.08838756 59615,6917.884,95.438,540.767,538.732,0.0
53429.0,STARLINK-4543,PAYLOAD,2023-08-31 02:26:01,15.0883193,0.0001424,53.2162,281.4082,91.0654,269.0501,0.00016314,2.309e-05,0.0,0 STARLINK-4543,1 53429U 22097AT  23243.10140526  .00002309  00000-0  16314-3 0  9998,2 53429  53.2162 281.4082 0001424  91.0654 269.0501 15.08831930 59651,6917.905,95.438,540.755,538.785,0.0
53429.0,STARLINK-4543,PAYLOAD,2023-09-01 11:49:06,15.08843637,0.0001377,53.216,275.1632,89.6008,270.5142,7.5659e-05,9.17e-06,0.0,0 STARLINK-4543,1 53429U 22097AT  23244.49243990  .00000917  00000-0  75659-4 0  9991,2 53429  53.2160 275.1632 0001377  89.6008 270.5142 15.08843637 59388,6917.869,95.437,540.687,538.782,0.0
53429.0,STARLINK-4543,PAYLOAD,2023-09-01 19:46:03,15.08826719,0.000131,53.2161,273.6771,87.1156,272.9986,-7.4252e-05,-1.469e-05,0.0,0 STARLINK-4543,1 53429U 22097AT  23244.82365542 -.00001469  00000-0 -74252-4 0  9999,2 53429  53.2161 273.6771 0001310  87.1156 272.9986 15.08826719 59430,6917.921,95.438,540.692,538.88,0.0
53429.0,STARLINK-4543,PAYLOAD,2023-09-02 08:29:09,15.08826116,0.0001406,53.2157,271.2983,86.4747,273.6406,-8.7304e-05,-1.677e-05,0.0,0 STARLINK-4543,1 53429U 22097AT  23245.35358052 -.00001677  00000-0 -87304-4 0  9999,2 53429  53.2157 271.2983 0001406  86.4747 273.6406 15.08826116 59995,6917.923,95.438,540.76,538.815,0.0
53429.0,STARLINK-4543,PAYLOAD,2023-09-03 01:58:23,15.08832602,0.0001572,53.2161,268.0271,86.5079,273.6093,1.5417e-05,-4.3e-07,0.0,0 STARLINK-4543,1 53429U 22097AT  23246.08221689 -.00000043  00000-0  15417-4 0  9996,2 53429  53.2161 268.0271 0001572  86.5079 273.6093 15.08832602 59626,6917.903,95.438,540.855,538.681,0.0
53429.0,STARLINK-4543,PAYLOAD,2023-09-03 13:06:04,15.08844358,0.0001367,53.2167,265.946,88.7774,271.3375,4.1248e-05,3.69e-06,0.0,0 STARLINK-4543,1 53429U 22097AT  23246.54589101  .00000369  00000-0  41248-4 0  9994,2 53429  53.2167 265.9460 0001367  88.7774 271.3375 15.08844358 60177,6917.867,95.437,540.678,538.786,0.0
53429.0,STARLINK-4543,PAYLOAD,2023-09-03 17:52:14,15.08841845,0.0001405,53.2163,265.0536,87.259,272.8563,7.9389e-05,9.76e-06,0.0,0 STARLINK-4543,1 53429U 22097AT  23246.74461206  .00000976  00000-0  79389-4 0  9992,2 53429  53.2163 265.0536 0001405  87.2590 272.8563 15.08841845 59723,6917.875,95.437,540.712,538.768,0.0
53429.0,STARLINK-4543,PAYLOAD,2023-09-04 08:10:42,15.08842457,0.0001336,53.2164,262.377,86.6379,273.4766,0.00028784,4.296e-05,0.0,0 STARLINK-4543,1 53429U 22097AT  23247.34077131  .00004296  00000-0  28784-3 0  9990,2 53429  53.2164 262.3770 0001336  86.6379 273.4766 15.08842457 60291,6917.873,95.437,540.662,538.814,0.0
53429.0,STARLINK-4543,PAYLOAD,2023-09-05 11:12:16,15.08840122,0.0001345,53.2152,257.3214,84.3782,275.7364,-3.4328e-05,-8.34e-06,0.0,0 STARLINK-4543,1 53429U 22097AT  23248.46685321 -.00000834  00000-0 -34328-4 0  9998,2 53429  53.2152 257.3214 0001345  84.3782 275.7364 15.08840122 59988,6917.88,95.438,540.675,538.815,0.0
53429.0,STARLINK-4543,PAYLOAD,2023-09-05 17:33:49,15.08836041,0.0001284,53.2156,256.132,85.7211,274.3927,-1.3827e-05,-5.08e-06,0.0,0 STARLINK-4543,1 53429U 22097AT  23248.73182132 -.00000508  00000-0 -13827-4 0  9999,2 53429  53.2156 256.1320 0001284  85.7211 274.3927 15.08836041 60023,6917.892,95.438,540.646,538.869,0.0
53429.0,STARLINK-4543,PAYLOAD,2023-09-06 12:38:26,15.08846527,0.0001225,53.215,252.5636,92.8348,267.2785,4.2109e-05,3.82e-06,0.0,0 STARLINK-4543,1 53429U 22097AT  23249.52669252  .00000382  00000-0  42109-4 0  9993,2 53429  53.2150 252.5636 0001225  92.8348 267.2785 15.08846527 60621,6917.86,95.437,540.573,538.878,0.0
53429.0,STARLINK-4543,PAYLOAD,2023-09-07 07:43:03,15.08849332,0.0001318,53.2155,248.9939,103.1861,256.9278,0.00010138,1.326e-05,0.0,0 STARLINK-4543,1 53429U 22097AT  23250.32156962  .00001326  00000-0  10138-3 0  9997,2 53429  53.2155 248.9939 0001318 103.1861 256.9278 15.08849332 60742,6917.852,95.437,540.629,538.805,0.0
53429.0,STARLINK-4543,PAYLOAD,2023-09-08 05:58:27,15.08842844,0.0001298,53.216,244.8309,92.4052,267.7089,0.00010415,1.37e-05,0.0,0 STARLINK-4543,1 53429U 22097AT  23251.24893474  .00001370  00000-0  10415-3 0  9992,2 53429  53.2160 244.8309 0001298  92.4052 267.7089 15.08842844 60407,6917.872,95.437,540.635,538.839,0.0
53429.0,STARLINK-4543,PAYLOAD,2023-09-08 17:06:09,15.08845513,0.0001317,53.216,242.7493,90.9787,269.1356,0.00010971,1.459e-05,0.0,0 STARLINK-4543,1 53429U 22097AT  23251.71261234  .00001459  00000-0  10971-3 0  9992,2 53429  53.2160 242.7493 0001317  90.9787 269.1356 15.08845513 60957,6917.864,95.437,540.64,538.817,0.0
53429.0,STARLINK-4543,PAYLOAD,2023-09-09 09:00:00,15.08857463,0.0001186,53.215,239.7749,87.1703,272.9424,0.00015659,2.206e-05,0.0,0 STARLINK-4543,1 53429U 22097AT  23252.37500016  .00002206  00000-0  15659-3 0  9998,2 53429  53.2150 239.7749 0001186  87.1703 272.9424 15.08857463 60579,6917.827,95.436,540.512,538.872,0.0
53429.0,STARLINK-4543,PAYLOAD,2023-09-10 08:50:47,15.08836602,0.000133,53.2149,235.3143,97.6796,262.4348,-0.00011724,-2.153e-05,0.0,0 STARLINK-4543,1 53429U 22097AT  23253.36860251 -.00002153  00000-0 -11724-3 0  9990,2 53429  53.2149 235.3143 0001330  97.6796 262.4348 15.08836602 60724,6917.891,95.438,540.676,538.836,0.0
53429.0,STARLINK-4543,PAYLOAD,2023-09-11 07:06:11,15.08829603,0.0001247,53.2144,231.1526,94.5103,265.6032,-0.00021116,-3.646e-05,0.0,0 STARLINK-4543,1 53429U 22097AT  23254.29597010 -.00003646  00000-0 -21116-3 0  9997,2 53429  53.2144 231.1526 0001247  94.5103 265.6032 15.08829603 61340,6917.912,95.438,540.64,538.915,0.0
53429.0,STARLINK-4543,PAYLOAD,2023-09-11 15:03:07,15.08839813,0.0001271,53.2155,229.6656,95.2038,264.9099,-0.00010979,-2.035e-05,0.0,0 STARLINK-4543,1 53429U 22097AT  23254.62717268 -.00002035  00000-0 -10979-3 0  9999,2 53429  53.2155 229.6656 0001271  95.2038 264.9099 15.08839813 60911,6917.881,95.438,540.625,538.867,0.0
53429.0,STARLINK-4543,PAYLOAD,2023-09-12 08:32:22,15.08838849,0.00013,53.2146,226.3946,100.3445,259.7694,0.00036912,5.591e-05,0.0,0 STARLINK-4543,1 53429U 22097AT  23255.35581322  .00005591  00000-0  36912-3 0  9993,2 53429  53.2146 226.3946 0001300 100.3445 259.7694 15.08838849 61507,6917.884,95.438,540.648,538.85,0.0
53429.0,STARLINK-4543,PAYLOAD,2023-09-13 02:01:37,15.08838045,0.000131,53.2153,223.1231,93.8637,266.2505,0.00029046,4.338e-05,0.0,0 STARLINK-4543,1 53429U 22097AT  23256.08445886  .00004338  00000-0  29046-3 0  9996,2 53429  53.2153 223.1231 0001310  93.8637 266.2505 15.08838045 61138,6917.886,95.438,540.658,538.845,0.0
53429.0,STARLINK-4543,PAYLOAD,2023-09-13 06:47:46,15.08851623,0.0001334,53.2151,222.231,94.0882,266.0263,0.00047601,7.298e-05,0.0,0 STARLINK-4543,1 53429U 22097AT  23256.28317410  .00007298  00000-0  47601-3 0  9994,2 53429  53.2151 222.2310 0001334  94.0882 266.0263 15.08851623 61164,6917.845,95.437,540.633,538.787,0.0
53429.0,STARLINK-4543,PAYLOAD,2023-09-14 01:52:24,15.08835856,0.0001393,53.2154,218.6628,102.2179,257.8969,3.1594e-05,2.15e-06,0.0,0 STARLINK-4543,1 53429U 22097AT  23257.07806054  .00000215  00000-0  31594-4 0  9996,2 53429  53.2154 218.6628 0001393 102.2179 257.8969 15.08835856 61288,6917.893,95.438,540.722,538.794,0.0
